OBJECT_NAME,OBJECT_ID,EPOCH,MEAN_MOTION,ECCENTRICITY,INCLINATION,RA_OF_ASC_NODE,ARG_OF_PERICENTER,MEAN_ANOMALY,EPHEMERIS_TYPE,CLASSIFICATION_TYPE,NORAD_CAT_ID,ELEMENT_SET_NO,REV_AT_EPOCH,BSTAR,MEAN_MOTION_DOT,MEAN_MOTION_DDOT
IRIDIUM 135,2017-083A,2026-07-24T06:26:31.171776,14.34217892,.00022802,86.3984,306.5164,94.7788,265.3668,0,U,43070,999,44946,.488503E-5,.33E-6,0
IRIDIUM 138,2017-083B,2026-07-24T07:03:03.091392,14.34218069,.00021122,86.3999,306.2071,96.8284,263.3152,0,U,43071,999,44945,.31790379E-4,.109E-5,0
IRIDIUM 116,2017-083C,2026-07-24T06:17:23.186688,14.34218818,.00025556,86.3984,306.5046,95.8793,264.2694,0,U,43072,999,44948,.71376391E-4,.22E-5,0
IRIDIUM 130,2017-083D,2026-07-24T07:12:11.193120,14.34217508,.00023066,86.3991,306.7677,100.3224,259.8232,0,U,43073,999,44943,-.26955078E-4,-.56E-6,0
IRIDIUM 151,2017-083E,2026-07-24T04:55:11.112672,14.34218412,.0002302,86.3987,306.5871,94.6946,265.4513,0,U,43074,999,44944,.25218812E-4,.9E-6,0
IRIDIUM 134,2017-083F,2026-07-24T07:30:27.148608,14.34217859,.00022719,86.3987,306.5505,96.6888,263.4566,0,U,43075,999,44942,.163755E-6,.2E-6,0
IRIDIUM 137,2017-083G,2026-07-24T07:48:43.250976,14.34217807,.0002618,86.3988,306.6388,89.0874,271.0622,0,U,43076,999,44949,.1024608E-5,.23E-6,0
IRIDIUM 141,2017-083H,2026-07-24T07:39:35.087040,14.34218859,.00021489,86.3984,306.4700,93.9257,266.2185,0,U,43077,999,44949,.54313171E-4,.172E-5,0
IRIDIUM 153,2017-083J,2026-07-24T06:30:43.401024,14.34217633,.0002163,86.3950,274.9672,96.6716,263.4726,0,U,43078,999,45059,-.3464727E-5,.1E-6,0
IRIDIUM 131,2017-083K,2026-07-24T07:21:19.158336,14.34217966,.00022153,86.3990,306.6638,93.4346,266.7103,0,U,43079,999,44942,.6613511E-5,.38E-6,0
IRIDIUM 144,2018-030A,2026-07-24T04:59:23.397216,14.34218142,.00024248,86.3948,274.9220,95.4001,264.7471,0,U,43249,999,43544,.29544509E-4,.103E-5,0
IRIDIUM 149,2018-030B,2026-07-24T05:08:31.390944,14.34217950,.00022537,86.3946,274.8858,94.3350,265.8103,0,U,43250,999,43546,.10290654E-4,.49E-6,0
IRIDIUM 157,2018-030C,2026-07-24T05:35:55.414464,14.34217728,.00021666,86.3949,274.9319,95.1305,265.0139,0,U,43251,999,43544,-.1652149E-5,.15E-6,0
IRIDIUM 140,2018-030D,2026-07-24T06:03:19.423296,14.34217733,.00022785,86.3949,274.9367,95.9370,264.2085,0,U,43252,999,43550,-.13884118E-4,-.19E-6,0
IRIDIUM 145,2018-030E,2026-07-24T05:45:03.453120,14.34218211,.000261,86.3948,274.9139,96.5845,263.5648,0,U,43253,999,43543,.29873352E-4,.103E-5,0
IRIDIUM 146,2018-030F,2026-07-24T06:58:07.459104,14.34218002,.00023825,86.3949,274.9049,95.0971,265.0497,0,U,43254,999,43545,.17411819E-4,.69E-6,0
IRIDIUM 148,2018-030G,2026-07-24T06:12:27.430848,14.34217726,.00021991,86.3950,274.9616,92.8982,267.2466,0,U,43255,999,43548,-.9053411E-5,-.6E-7,0
IRIDIUM 142,2018-030H,2026-07-24T07:07:15.357792,14.34219034,.00024559,86.3946,274.8335,94.7792,265.3685,0,U,43256,999,43545,.63169784E-4,.197E-5,0
IRIDIUM 150,2018-030J,2026-07-24T06:21:35.455680,14.34217949,.00023559,86.3948,274.9643,95.7725,264.3739,0,U,43257,999,43547,.25701052E-4,.92E-6,0
IRIDIUM 143,2018-030K,2026-07-24T05:54:11.435616,14.34217800,.00023768,86.3951,275.0662,95.4125,264.7342,0,U,43258,999,43540,-.845102E-6,.17E-6,0
IRIDIUM 161,2018-047C,2026-07-24T02:56:10.265856,14.43279297,.00021149,86.4452,73.0224,81.5167,278.6274,0,U,43478,999,43046,.77154943E-4,.28E-5,0
IRIDIUM 152,2018-047D,2026-07-24T03:34:26.239584,14.34217367,.00019592,86.3924,72.8725,84.9455,275.1964,0,U,43479,999,42778,-.13199855E-4,-.17E-6,0
IRIDIUM 147,2018-047E,2026-07-24T03:43:34.275648,14.34217470,.00021981,86.3926,72.8757,86.8755,273.2693,0,U,43480,999,42778,-.3782432E-5,.9E-7,0
IRIDIUM 110,2018-047F,2026-07-24T00:31:46.088544,14.34218047,.00019683,86.3933,73.0247,79.7212,280.4205,0,U,43481,999,42775,.44181525E-4,.144E-5,0
IRIDIUM 162,2018-047G,2026-07-24T02:47:04.920288,14.43282190,.00021683,86.4451,72.9157,86.9105,273.2344,0,U,43482,999,43045,.80753065E-4,.292E-5,0
IRIDIUM 160,2018-061A,2026-07-23T23:13:46.335360,14.34218469,.00021827,86.3938,41.4108,87.0109,273.1336,0,U,43569,999,41864,.36743726E-4,.123E-5,0
IRIDIUM 166,2018-061B,2026-07-24T01:30:46.629216,14.34216751,.00021753,86.3932,41.3207,88.9948,271.1497,0,U,43570,999,41868,-.23664732E-4,-.46E-6,0
IRIDIUM 158,2018-061C,2026-07-23T23:04:38.370144,14.34218794,.00021078,86.3936,41.3732,89.6727,270.4711,0,U,43571,999,41863,.56044911E-4,.177E-5,0
IRIDIUM 165,2018-061D,2026-07-24T01:21:38.508480,14.34217845,.00022476,86.3944,41.3807,90.6743,269.4710,0,U,43572,999,41867,.18467333E-4,.71E-6,0
IRIDIUM 155,2018-061E,2026-07-24T02:07:18.434784,14.34217740,.00021667,86.3935,41.2345,90.9162,269.2282,0,U,43573,999,41864,.3236294E-5,.29E-6,0
