{"epoch":1784902576,"count":18312,"objects":[{"id":"43070","name":"IRIDIUM 135","type":"PAYLOAD","l1":"1 43070U 17083A   26205.26841634  .00000033  00000-0  48850-5 0  9998","l2":"2 43070  86.3984 306.5164 0002280  94.7788 265.3668 14.34217892449468"},{"id":"43071","name":"IRIDIUM 138","type":"PAYLOAD","l1":"1 43071U 17083B   26205.29378578  .00000109  00000-0  31790-4 0  9992","l2":"2 43071  86.3999 306.2071 0002112  96.8284 263.3152 14.34218069449459"},{"id":"43072","name":"IRIDIUM 116","type":"PAYLOAD","l1":"1 43072U 17083C   26205.26207392  .00000220  00000-0  71376-4 0  9993","l2":"2 43072  86.3984 306.5046 0002556  95.8793 264.2694 14.34218818449481"},{"id":"43073","name":"IRIDIUM 130","type":"PAYLOAD","l1":"1 43073U 17083D   26205.30012955 -.00000056  00000-0 -26955-4 0  9990","l2":"2 43073  86.3991 306.7677 0002307 100.3224 259.8232 14.34217508449435"},{"id":"43074","name":"IRIDIUM 151","type":"PAYLOAD","l1":"1 43074U 17083E   26205.20498973  .00000090  00000-0  25219-4 0  9996","l2":"2 43074  86.3987 306.5871 0002302  94.6946 265.4513 14.34218412449447"},{"id":"43075","name":"IRIDIUM 134","type":"PAYLOAD","l1":"1 43075U 17083F   26205.31281422  .00000020  00000-0  16376-6 0  9997","l2":"2 43075  86.3987 306.5505 0002272  96.6888 263.4566 14.34217859449423"},{"id":"43076","name":"IRIDIUM 137","type":"PAYLOAD","l1":"1 43076U 17083G   26205.32550059  .00000023  00000-0  10246-5 0  9996","l2":"2 43076  86.3988 306.6388 0002618  89.0874 271.0622 14.34217807449498"},{"id":"43077","name":"IRIDIUM 141","type":"PAYLOAD","l1":"1 43077U 17083H   26205.31915610  .00000172  00000-0  54313-4 0  9991","l2":"2 43077  86.3984 306.4700 0002149  93.9257 266.2185 14.34218859449497"},{"id":"43078","name":"IRIDIUM 153","type":"PAYLOAD","l1":"1 43078U 17083J   26205.27133566  .00000010  00000-0 -34647-5 0  9990","l2":"2 43078  86.3950 274.9672 0002163  96.6716 263.4726 14.34217633450596"},{"id":"43079","name":"IRIDIUM 131","type":"PAYLOAD","l1":"1 43079U 17083K   26205.30647174  .00000038  00000-0  66135-5 0  9996","l2":"2 43079  86.3990 306.6638 0002215  93.4346 266.7103 14.34217966449422"},{"id":"43249","name":"IRIDIUM 144","type":"PAYLOAD","l1":"1 43249U 18030A   26205.20790969  .00000103  00000-0  29545-4 0  9994","l2":"2 43249  86.3948 274.9220 0002425  95.4001 264.7471 14.34218142435441"},{"id":"43250","name":"IRIDIUM 149","type":"PAYLOAD","l1":"1 43250U 18030B   26205.21425221  .00000049  00000-0  10291-4 0  9990","l2":"2 43250  86.3946 274.8858 0002254  94.3350 265.8103 14.34217950435464"},{"id":"43251","name":"IRIDIUM 157","type":"PAYLOAD","l1":"1 43251U 18030C   26205.23328026  .00000015  00000-0 -16521-5 0  9995","l2":"2 43251  86.3949 274.9319 0002167  95.1305 265.0139 14.34217728435445"},{"id":"43252","name":"IRIDIUM 140","type":"PAYLOAD","l1":"1 43252U 18030D   26205.25230814 -.00000019  00000-0 -13884-4 0  9998","l2":"2 43252  86.3949 274.9367 0002279  95.9370 264.2085 14.34217733435507"},{"id":"43253","name":"IRIDIUM 145","type":"PAYLOAD","l1":"1 43253U 18030E   26205.23962330  .00000103  00000-0  29873-4 0  9999","l2":"2 43253  86.3948 274.9139 0002610  96.5845 263.5648 14.34218211435438"},{"id":"43254","name":"IRIDIUM 146","type":"PAYLOAD","l1":"1 43254U 18030F   26205.29036411  .00000069  00000-0  17412-4 0  9995","l2":"2 43254  86.3949 274.9049 0002382  95.0971 265.0497 14.34218002435459"},{"id":"43255","name":"IRIDIUM 148","type":"PAYLOAD","l1":"1 43255U 18030G   26205.25865082 -.00000006  00000-0 -90534-5 0  9996","l2":"2 43255  86.3950 274.9616 0002199  92.8982 267.2466 14.34217726435480"},{"id":"43256","name":"IRIDIUM 142","type":"PAYLOAD","l1":"1 43256U 18030H   26205.29670553  .00000197  00000-0  63170-4 0  9992","l2":"2 43256  86.3946 274.8335 0002456  94.7792 265.3685 14.34219034435452"},{"id":"43257","name":"IRIDIUM 150","type":"PAYLOAD","l1":"1 43257U 18030J   26205.26499370  .00000092  00000-0  25701-4 0  9998","l2":"2 43257  86.3948 274.9643 0002356  95.7725 264.3739 14.34217949435478"},{"id":"43258","name":"IRIDIUM 143","type":"PAYLOAD","l1":"1 43258U 18030K   26205.24596569  .00000017  00000-0 -84510-6 0  9998","l2":"2 43258  86.3951 275.0662 0002377  95.4125 264.7342 14.34217800435403"},{"id":"43478","name":"IRIDIUM 161","type":"PAYLOAD","l1":"1 43478U 18047C   26205.12234104  .00000280  00000-0  77155-4 0  9997","l2":"2 43478  86.4452  73.0224 0002115  81.5167 278.6274 14.43279297430463"},{"id":"43479","name":"IRIDIUM 152","type":"PAYLOAD","l1":"1 43479U 18047D   26205.14891481 -.00000017  00000-0 -13200-4 0  9998","l2":"2 43479  86.3924  72.8725 0001959  84.9455 275.1964 14.34217367427781"},{"id":"43480","name":"IRIDIUM 147","type":"PAYLOAD","l1":"1 43480U 18047E   26205.15525782  .00000009  00000-0 -37824-5 0  9998","l2":"2 43480  86.3926  72.8757 0002198  86.8755 273.2693 14.34217470427783"},{"id":"43481","name":"IRIDIUM 110","type":"PAYLOAD","l1":"1 43481U 18047F   26205.02206121  .00000144  00000-0  44182-4 0  9991","l2":"2 43481  86.3933  73.0247 0001968  79.7212 280.4205 14.34218047427759"},{"id":"43482","name":"IRIDIUM 162","type":"PAYLOAD","l1":"1 43482U 18047G   26205.11602917  .00000292  00000-0  80753-4 0  9993","l2":"2 43482  86.4451  72.9157 0002168  86.9105 273.2344 14.43282190430453"},{"id":"43569","name":"IRIDIUM 160","type":"PAYLOAD","l1":"1 43569U 18061A   26204.96789740  .00000123  00000-0  36744-4 0  9991","l2":"2 43569  86.3938  41.4108 0002183  87.0109 273.1336 14.34218469418643"},{"id":"43570","name":"IRIDIUM 166","type":"PAYLOAD","l1":"1 43570U 18061B   26205.06303969 -.00000046  00000-0 -23665-4 0  9994","l2":"2 43570  86.3932  41.3207 0002175  88.9948 271.1497 14.34216751418682"},{"id":"43571","name":"IRIDIUM 158","type":"PAYLOAD","l1":"1 43571U 18061C   26204.96155521  .00000177  00000-0  56045-4 0  9993","l2":"2 43571  86.3936  41.3732 0002108  89.6727 270.4711 14.34218794418634"},{"id":"43572","name":"IRIDIUM 165","type":"PAYLOAD","l1":"1 43572U 18061D   26205.05669570  .00000071  00000-0  18467-4 0  9998","l2":"2 43572  86.3944  41.3807 0002248  90.6743 269.4710 14.34217845418679"},{"id":"43573","name":"IRIDIUM 155","type":"PAYLOAD","l1":"1 43573U 18061E   26205.08840781  .00000029  00000-0  32363-5 0  9992","l2":"2 43573  86.3935  41.2345 0002167  90.9162 269.2282 14.34217740418647"}]}